ELFIN-B                 
1 43616U 18070D   21053.79700877  .00008727  00000-0  19709-3 0  9995
2 43616  93.0195 258.4015 0017329  88.0625 272.2616 15.43038908137081
ELFIN-A                 
1 43617U 18070E   21053.59292665  .00009190  00000-0  20524-3 0  9997
2 43617  93.0248 259.0541 0016674  86.0308 274.2854 15.43381652137061
CUBEBEL-1 (BSUSAT-1)    
1 43666U 18083E   21053.84903553  .00001637  00000-0  81485-4 0  9990
2 43666  97.4683  83.6124 0014206 201.6024 331.5870 15.18933879128615
CICERO 10               
1 43690U 18088A   21053.71169179  .00001822  00000-0  80434-4 0  9995
2 43690  85.0348 273.3528 0016703 108.7586 251.5469 15.20866583126784
IRVINE01                
1 43693U 18088D   21053.86166405  .00005405  00000-0  21695-3 0  9997
2 43693  85.0318 271.0647 0019135  88.3658 271.9777 15.24548135126979
PROXIMA I               
1 43694U 18088E   21053.87751685  .00001666  00000-0  69560-4 0  9998
2 43694  85.0289 271.1422 0021084  82.8846 277.4793 15.22594006126945
PROXIMA II              
1 43696U 18088G   21053.87565357  .00001637  00000-0  68297-4 0  9993
2 43696  85.0290 271.1503 0021142  82.8405 277.5240 15.22593030126938
FACSAT-1                
1 43721U 18096C   21053.89584613  .00002574  00000-0  95935-4 0  9999
2 43721  97.3946 131.9090 0016079 322.2351  90.4556 15.28258074124627
CENTAURI-2              
1 43722U 18096D   21053.93308557  .00004336  00000-0  15550-3 0  9998
2 43722  97.3974 132.5304 0015621 320.2259  39.7835 15.29143497124653
INNOSAT-2               
1 43738U 18096V   21053.96731782  .00005258  00000-0  17030-3 0  9997
2 43738  97.4014 135.6934 0020850 322.0667  86.1656 15.32255378124868
SIRION PATHFINDER-2     
1 43759U 18099B   21053.64259579 -.00000172  00000-0 -10399-4 0  9991
2 43759  97.6770 126.6659 0015762  69.7316 290.5584 14.95430577121321
CORVUS BC4              
1 43767U 18099K   21053.67725022  .00000318  00000-0  34293-4 0  9993
2 43767  97.6754 125.8310 0013223  76.3995 283.8716 14.94861869121282
MOVE-II                 
1 43780U 18099Y   21053.62191946  .00001156  00000-0  10867-3 0  9996
2 43780  97.6795 126.6976 0015025  80.8188 279.4732 14.95739400121303
SPACEBEE-7              
1 43816U 18099BL  21053.85082368  .00000338  00000-0  35190-4 0  9996
2 43816  97.6804 127.4593 0014488  65.1250 295.1476 14.95970672120921
SPACEBEE-5              
1 43817U 18099BM  21053.74135867  .00002074  00000-0  18509-3 0  9991
2 43817  97.6879 128.2957 0014055  66.9038 293.3664 14.96964685120949
SPACEBEE-6              
1 43818U 18099BN  21053.70737586  .00000536  00000-0  52494-4 0  9997
2 43818  97.6831 127.6088 0014495  65.3424 294.9305 14.96277090121066
SHIELDS 1               
1 43850U 18104B   21053.44910736  .00000959  00000-0  40516-4 0  9992
2 43850  85.0316  10.0222 0012985 225.2809 134.7377 15.21704686121483
STF-1                   
1 43852U 18104D   21053.84526814  .00002332  00000-0  10028-3 0  9999
2 43852  85.0353  10.4198 0012063 240.0441 119.9603 15.22015820121524
ZACUBE-2                
1 43907U 18111AH  21053.95119031  .00000943  00000-0  40443-4 0  9990
2 43907  97.2447 311.8684 0020985 343.2519  26.4282 15.24972093120188
LUME 1                  
1 43908U 18111AJ  21053.70950270  .00002443  00000-0  97896-4 0  9993
2 43908  97.2460 312.0350 0020258 342.7775  17.2773 15.25789085120178
AOBA VELOX-IV           
1 43940U 19003J   21053.87630688  .00005209  00000-0  20171-3 0  9990
2 43940  97.1959 102.2435 0024519  58.8969 301.4672 15.26313987116821
CATSAT-2                
1 44029U 98067PV  21053.54188294  .00200188  00000-0  75430-3 0  9992
2 44029  51.6383 115.0176 0004749 343.6216  16.4635 15.86655598117874
DELPHINI                
1 44030U 98067PW  21053.86930411  .00315081  51316-4  70412-3 0  9999
2 44030  51.6252 106.3110 0006532   8.5960 351.5159 15.97248436117984
UNITE                   
1 44031U 98067PX  21053.80319704  .00033673  00000-0  27873-3 0  9997
2 44031  51.6370 134.0767 0002684 313.9215  46.1560 15.69924566117619
CATSAT-1                
1 44033U 98067PZ  21053.54040191  .00114545  00000-0  44251-3 0  9998
2 44033  51.6377 115.0164 0004971 351.0015   9.0899 15.86399157117782
RAAVANA-1               
1 44329U 98067QE  21053.68391613  .00042690  00000-0  39179-3 0  9993
2 44329  51.6360 152.8829 0004222 231.7159 128.3458 15.67279311 96107
UGUISU                  
1 44330U 98067QF  21053.65434661  .00039509  00000-0  36668-3 0  9998
2 44330  51.6335 153.3704 0004185 230.3966 129.6661 15.67038101 96074
NEPALISAT-1             
1 44331U 98067QG  21053.67565951  .00041524  00000-0  38169-3 0  9996
2 44331  51.6336 152.7632 0004249 234.3299 125.7302 15.67252564 96095
SPOOQY-1                
1 44332U 98067QH  21053.64655961  .00036976  00000-0  34624-3 0  9992
2 44332  51.6347 153.3433 0003593 237.1307 122.9343 15.66851045 96043
SPACEBEE-9              
1 44370U 19037F   21053.56205430  .00030041  00000-0  51428-3 0  9995
2 44370  45.0026 151.3911 0012206 256.2911 103.6622 15.50679703 93314
SPACEBEE-8              
1 44371U 19037G   21053.55930513  .00122294  00000-0  10820-2 0  9994
2 44371  45.0014 128.4899 0010529 327.9116  32.1140 15.67493969 93565
IOD-1 GEMS              
1 44385U 98067QK  21053.60814368  .00180705  00000-0  80103-3 0  9997
2 44385  51.6340 140.3341 0002973 326.4822  33.5992 15.83333245 93739
MOVE-IIB                
1 44398U 19038N   21053.92848825  .00002283  00000-0  13163-3 0  9998
2 44398  97.5693  18.5809 0024358 348.7124  11.3558 15.13176515 90446
SONATE                  
1 44400U 19038Q   21053.85848533  .00001067  00000-0  65029-4 0  9998
2 44400  97.5725  18.4620 0024995 348.0476  12.0162 15.12332346 90417
LUCKY-7                 
1 44406U 19038W   21053.62631152  .00001424  00000-0  84686-4 0  9993
2 44406  97.5749  18.4291 0024071 348.1969  11.8694 15.12682464 90388
BEESAT 9                
1 44412U 19038AC  21053.53501340  .00001865  00000-0  10909-3 0  9990
2 44412  97.5737  18.3374 0022253 354.4313   5.6667 15.12917455 90074
JAISAT-1                
1 44419U 19038F   21053.67375117  .00001871  00000-0  10804-3 0  9994
2 44419  97.5740  18.9315 0021042 352.6781   7.4140 15.13402052 90439
SWIATOWID               
1 44426U 98067QL  21053.78766515  .00345989  57051-4  97490-3 0  9998
2 44426  51.6338 133.7055 0005408 351.0714 110.5959 15.92950693 93843
KRAKSAT                 
1 44427U 98067QM  21053.69789918  .00024258  00000-0  27532-3 0  9992
2 44427  51.6416 161.7673 0002881 168.1802 335.3009 15.62210861 93504
VCC A                   
1 44428U 98067QN  21053.81039075  .00037253  00000-0  35990-3 0  9995
2 44428  51.6372 155.2924 0001709 209.3220 150.7680 15.66074259 93601
ENTRYSAT                
1 44429U 98067QP  21053.66482190  .00052063  00000-0  42887-3 0  9998
2 44429  51.6329 151.2201 0001145 228.5471 131.5428 15.69841850 93646
VCC C                   
1 44430U 98067QQ  21053.65659914  .00098119  00000-0  60740-3 0  9999
2 44430  51.6310 145.1401 0002243 307.1110  52.9685 15.76280953 92555
VCC B                   
1 44431U 98067QR  21053.53794106  .00039039  00000-0  37376-3 0  9995
2 44431  51.6345 156.4125 0001794 207.3688 152.7214 15.66277348 93509
DUCHIFAT-3              
1 44854U 19089C   21053.72219684  .00000585  00000-0  53345-4 0  9994
2 44854  36.9679  59.0545 0009224 289.3936  70.5823 14.99337104 65874
EYESAT-NANO             
1 44877U 19092E   21053.77395748  .00002481  00000-0  12670-3 0  9996
2 44877  97.4568 239.0817 0012297 224.2859 135.7392 15.17572245 65543
ORBITAL FACTORY 2 (OF-2)
1 45113U 19071C   21053.84766292  .00004679  00000-0  14729-3 0  9999
2 45113  51.6409 232.8260 0011897 237.0798 122.9040 15.34831939 59565
M2 PATHFINDER           
1 45727U 20037E   21053.75327207 -.00000236  00000-0 -18145-4 0  9997
2 45727  97.7046 234.0952 0012619 183.4593 176.6506 14.91316390 35328
NETSAT-4                
1 46504U 20068U   21053.78548899  .00000152  00000-0  16178-4 0  9999
2 46504  97.6751 351.6743 0009905 134.6691 225.5347 15.01952475 22021
NETSAT-3                
1 46505U 20068V   21053.78912238 -.00000054  00000-0  49979-6 0  9991
2 46505  97.6764 351.6674 0009179 131.0594 229.1425 15.01918705 22031
NETSAT-1                
1 46506U 20068W   21052.26055210 -.00000053  00000-0  52371-6 0  9991
2 46506  97.6775 350.1431 0008664 132.0792 228.1168 15.01892097 21800
NETSAT-2                
1 46507U 20068X   21053.92790986 -.00000296  00000-0 -18059-4 0  9995
2 46507  97.6776 351.7948 0008804 125.5503 234.6531 15.01869679 22004
SPOC                    
1 46921U 98067RR  21053.74602242  .00011932  00000-0  20132-3 0  9997
2 46921  51.6417 187.1002 0002050  16.0323 344.0731 15.52094256 17031
BOBCAT-1                
1 46922U 98067RS  21053.78609500  .00017485  00000-0  28402-3 0  9993
2 46922  51.6420 186.6226 0001647  16.2288 343.8755 15.52800939 17004
NEUTRON-1               
1 46923U 98067RT  21053.62400015  .00012282  00000-0  20780-3 0  9998
2 46923  51.6416 187.7837 0001962  31.1499 328.9607 15.51983842 17048
1998-067RU              
1 46924U 98067RU  21053.74529761  .00027663  00000-0  42439-3 0  9996
2 46924  51.6407 186.3443 0001393  56.4228 303.6895 15.54080480 17043
DESCENT                 
1 46927U 98067RX  21053.75594174  .00012522  00000-0  21185-3 0  9993
2 46927  51.6414 187.1631 0002195  54.0809 306.0384 15.51966022 16975
